[Satellite]
VERSION=1.1
NAME=PCSAT (NO-44)
NICKNAME=NO-44
TLE1=1 26931U 01043C   20157.77350162 -.00000032  00000-0  19507-4 0  9997
TLE2=2 26931  67.0496 172.5371 0005911 270.6319  89.4105 14.30578789975409
STATUS=0
